GPS BIIR-2  (PRN 13)    
1 24876U 97035A   24193.20932203  .00000014  00000+0  00000+0 0  9994
2 24876  55.6772 126.1936 0081064  52.5649 308.1598  2.00565649197793
GPS BIIR-4  (PRN 20)    
1 26360U 00025A   24193.60241483 -.00000080  00000+0  00000+0 0  9998
2 26360  54.6861  47.8861 0038080 214.7846 154.3063  2.00577179177122
GPS BIIR-5  (PRN 22)    
1 26407U 00040A   24193.54965892  .00000013  00000+0  00000+0 0  9992
2 26407  55.0568 243.2151 0144597 294.7813 238.5333  2.00560738175788
GPS BIIR-8  (PRN 16)    
1 27663U 03005A   24193.84965182  .00000016  00000+0  00000+0 0  9999
2 27663  55.0953 243.0143 0136387  47.4095 119.5116  2.00573527157151
GPS BIIR-9  (PRN 21)    
1 27704U 03010A   24190.85126354 -.00000105  00000+0  00000+0 0  9999
2 27704  55.0953 352.9167 0253224 328.1190  51.3752  2.00563895155905
GPS BIIR-11 (PRN 19)    
1 28190U 04009A   24193.41959861 -.00000077  00000+0  00000+0 0  9998
2 28190  55.4329 304.0729 0098398 149.4778 224.8670  2.00558740148791
GPS BIIR-13 (PRN 02)    
1 28474U 04045A   24194.33400089 -.00000093  00000+0  00000+0 0  9996
2 28474  55.4236 353.2038 0161873 293.0700  67.0690  2.00561603144283
GPS BIIRM-1 (PRN 17)    
1 28874U 05038A   24194.16608618 -.00000075  00000+0  00000+0 0  9992
2 28874  55.4779 301.5054 0136471 284.2765 292.6917  2.00553811137688
GPS BIIRM-2 (PRN 31)    
1 29486U 06042A   24193.02186094  .00000064  00000+0  00000+0 0  9998
2 29486  54.6799 179.3423 0103579  38.6573 332.8617  2.00554449130239
GPS BIIRM-3 (PRN 12)    
1 29601U 06052A   24194.42729508  .00000024  00000+0  00000+0 0  9992
2 29601  55.1263 241.9706 0084532  83.3387 277.6956  2.00569299129315
GPS BIIRM-4 (PRN 15)    
1 32260U 07047A   24194.23101035 -.00000017  00000+0  00000+0 0  9993
2 32260  53.6188 109.2127 0156300  75.8320 285.9135  2.00562786122697
GPS BIIRM-5 (PRN 29)    
1 32384U 07062A   24193.79338980 -.00000076  00000+0  00000+0 0  9993
2 32384  55.6182 302.3862 0028928 153.4255  19.8600  2.00576312121360
GPS BIIRM-6 (PRN 07)    
1 32711U 08012A   24193.65110468  .00000071  00000+0  00000+0 0  9991
2 32711  54.4530 178.0744 0188701 239.4201 118.6939  2.00568917119606
GPS BIIRM-8 (PRN 05)    
1 35752U 09043A   24193.64410934 -.00000073  00000+0  00000+0 0  9997
2 35752  55.6934  55.3104 0057163  72.9742 297.7503  2.00567884109213
GPS BIIF-1  (PRN 25)    
1 36585U 10022A   24194.54240126  .00000033  00000+0  00000+0 0  9990
2 36585  54.4375 236.9760 0114073  61.9620 357.4404  2.00552770103458
GPS BIIF-3  (PRN 24)    
1 38833U 12053A   24193.33108220  .00000064  00000+0  00000+0 0  9992
2 38833  53.5194 172.4827 0152984  56.0857 305.3387  2.00559126 85287
GPS BIIF-4  (PRN 27)    
1 39166U 13023A   24192.19672408 -.00000069  00000+0  00000+0 0  9993
2 39166  55.0921 297.6554 0123787  45.0208 316.0076  2.00562815 81690
GPS BIIF-5  (PRN 30)    
1 39533U 14008A   24193.19366148  .00000064  00000+0  00000+0 0  9991
2 39533  53.6020 178.0892 0073386 221.0452 138.3872  2.00569981 75520
GPS BIIF-6  (PRN 06)    
1 39741U 14026A   24192.97280800 -.00000095  00000+0  00000+0 0  9992
2 39741  56.7096 358.9463 0030872 316.2271  43.5374  2.00566780 74370
GPS BIIF-7  (PRN 09)    
1 40105U 14045A   24193.06595699 -.00000001  00000+0  00000+0 0  9992
2 40105  54.9402 116.6547 0026392 114.7952 245.4832  2.00568088 71910
GPS BIIF-8  (PRN 03)    
1 40294U 14068A   24193.93660552 -.00000070  00000+0  00000+0 0  9999
2 40294  56.4417  58.2745 0054590  63.1650 297.4567  2.00561515 71040
GPS BIIF-9  (PRN 26)    
1 40534U 15013A   24194.06691307  .00000033  00000+0  00000+0 0  9992
2 40534  53.3359 233.3662 0088230  29.7523 330.8139  2.00564147 68101
GPS BIIF-10 (PRN 08)    
1 40730U 15033A   24193.23162416 -.00000070  00000+0  00000+0 0  9996
2 40730  54.5744 296.0751 0094112  19.7803 340.6178  2.00565891 65859
GPS BIIF-11 (PRN 10)    
1 41019U 15062A   24193.78968864 -.00000070  00000+0  00000+0 0  9990
2 41019  56.4216  58.1335 0095682 224.7343 134.5522  2.00562650 63682
GPS BIIF-12 (PRN 32)    
1 41328U 16007A   24193.37152502  .00000000  00000+0  00000+0 0  9994
2 41328  55.1342 117.4901 0079919 238.9246 120.2932  2.00560819 61683
GPS BIII-1  (PRN 04)    
1 43873U 18109A   24193.26214030  .00000004  00000+0  00000+0 0  9993
2 43873  55.3056 120.0771 0029265 194.4625 337.6993  2.00557264 40863
GPS BIII-2  (PRN 18)    
1 44506U 19056A   24193.91785574 -.00000093  00000+0  00000+0 0  9996
2 44506  55.8409 359.1060 0043799 188.5173 359.9494  2.00572366 35913
GPS BIII-3  (PRN 23)    
1 45854U 20041A   24193.61216524 -.00000072  00000+0  00000+0 0  9997
2 45854  56.1429  56.4674 0044256 192.9822  69.6035  2.00573495 29882
GPS BIII-4  (PRN 14)    
1 46826U 20078A   24193.51433920  .00000018  00000+0  00000+0 0  9996
2 46826  54.1717 239.4199 0047531 197.8672 332.1664  2.00560393 27350
GPS BIII-5  (PRN 11)    
1 48859U 21054A   24193.53442222 -.00000095  00000+0  00000+0 0  9992
2 48859  55.3667   0.7612 0015782 218.1187 150.7615  2.00556908 22605
GPS BIII-6  (PRN 28)    
1 55268U 23009A   24192.96580914  .00000064  00000+0  00000+0 0  9998
2 55268  55.0881 176.2350 0000645  82.3711 279.0009  2.00562901 11088
